{"type": "FeatureCollection", "features": [ {"type": "Feature", "properties": {"norad_id": 34077, "name": "IRIDIUM 33 DEB", "group": "iridium-33-debris", "lat": 80.02045437499052, "lon": -153.90089841216752, "alt_km": 670.179590707261, "timestamp": "2025-12-22T14:45:57.790166+00:00", "meta": {"OBJECT_NAME": "IRIDIUM 33 DEB", "OBJECT_ID": "1997-051CL", "EPOCH": "2025-12-22T03:06:20.172096", "MEAN_MOTION": 14.64936285, "ECCENTRICITY": 0.00091067, "INCLINATION": 86.3848, "RA_OF_ASC_NODE": 47.3707, "ARG_OF_PERICENTER": 8.9651, "MEAN_ANOMALY": 49.6074, "EPHEMERIS_TYPE": 0, "CLASSIFICATION_TYPE": "U", "NORAD_CAT_ID": 34077, "ELEMENT_SET_NO": 999, "REV_AT_EPOCH": 88470, "BSTAR": 0.0012796439, "MEAN_MOTION_DOT": 6.872e-05, "MEAN_MOTION_DDOT": 0}, "tle": {"line1": "1 34077U 97051CL  25356.12940014  .00006872  00000+0  12796-2 0  9994", "line2": "2 34077  86.3848  47.3707 0009106   8.9651  49.6074 14.64936285884708"}}, "geometry": {"type": "Point", "coordinates": [-153.90089841216752, 80.02045437499052]}}, {"type": "Feature", "properties": {"norad_id": 34079, "name": "IRIDIUM 33 DEB", "group": "iridium-33-debris", "lat": 36.79174588601986, "lon": 6.886112262838709, "alt_km": 613.6200349213332, "timestamp": "2025-12-22T14:45:57.790177+00:00", "meta": {"OBJECT_NAME": "IRIDIUM 33 DEB", "OBJECT_ID": "1997-051CN", "EPOCH": "2025-12-21T13:15:26.349984", "MEAN_MOTION": 14.83733705, "ECCENTRICITY": 0.000457, "INCLINATION": 86.3769, "RA_OF_ASC_NODE": 4.6535, "ARG_OF_PERICENTER": 336.3629, "MEAN_ANOMALY": 147.0439, "EPHEMERIS_TYPE": 0, "CLASSIFICATION_TYPE": "U", "NORAD_CAT_ID": 34079, "ELEMENT_SET_NO": 999, "REV_AT_EPOCH": 89108, "BSTAR": 0.0012935, "MEAN_MOTION_DOT": 0.00010729, "MEAN_MOTION_DDOT": 0}, "tle": {"line1": "1 34079U 97051CN  25355.55238831  .00010729  00000+0  12935-2 0  9990", "line2": "2 34079  86.3769   4.6535 0004570 336.3629 147.0439 14.83733705891080"}}, "geometry": {"type": "Point", "coordinates": [6.886112262838709, 36.79174588601986]}}, {"type": "Feature", "properties": {"norad_id": 34088, "name": "IRIDIUM 33 DEB", "group": "iridium-33-debris", "lat": 50.211637074743834, "lon": 30.53985957074995, "alt_km": 588.2983183324841, "timestamp": "2025-12-22T14:45:57.790188+00:00", "meta": {"OBJECT_NAME": "IRIDIUM 33 DEB", "OBJECT_ID": "1997-051CX", "EPOCH": "2025-12-21T19:59:46.870368", "MEAN_MOTION": 14.91753084, "ECCENTRICITY": 0.00067081, "INCLINATION": 86.3838, "RA_OF_ASC_NODE": 26.5444, "ARG_OF_PERICENTER": 148.1548, "MEAN_ANOMALY": 25.1344, "EPHEMERIS_TYPE": 0, "CLASSIFICATION_TYPE": "U", "NORAD_CAT_ID": 34088, "ELEMENT_SET_NO": 999, "REV_AT_EPOCH": 88877, "BSTAR": 0.001888124, "MEAN_MOTION_DOT": 0.00019078, "MEAN_MOTION_DDOT": 0}, "tle": {"line1": "1 34088U 97051CX  25355.83318137  .00019078  00000+0  18881-2 0  9991", "line2": "2 34088  86.3838  26.5444 0006708 148.1548  25.1344 14.91753084888777"}}, "geometry": {"type": "Point", "coordinates": [30.53985957074995, 50.211637074743834]}}, {"type": "Feature", "properties": {"norad_id": 34091, "name": "IRIDIUM 33 DEB", "group": "iridium-33-debris", "lat": -80.80209078382616, "lon": -94.41622404576117, "alt_km": 604.9647766240796, "timestamp": "2025-12-22T14:45:57.790198+00:00", "meta": {"OBJECT_NAME": "IRIDIUM 33 DEB", "OBJECT_ID": "1997-051DA", "EPOCH": "2025-12-22T03:52:05.601216", "MEAN_MOTION": 14.82461655, "ECCENTRICITY": 0.00342419, "INCLINATION": 86.3415, "RA_OF_ASC_NODE": 62.5176, "ARG_OF_PERICENTER": 259.4997, "MEAN_ANOMALY": 100.2366, "EPHEMERIS_TYPE": 0, "CLASSIFICATION_TYPE": "U", "NORAD_CAT_ID": 34091, "ELEMENT_SET_NO": 999, "REV_AT_EPOCH": 88006, "BSTAR": 0.0054457113, "MEAN_MOTION_DOT": 0.00044372, "MEAN_MOTION_DDOT": 0}, "tle": {"line1": "1 34091U 97051DA  25356.16117594  .00044372  00000+0  54457-2 0  9990", "line2": "2 34091  86.3415  62.5176 0034241 259.4997 100.2366 14.82461655880064"}}, "geometry": {"type": "Point", "coordinates": [-94.41622404576117, -80.80209078382616]}}, {"type": "Feature", "properties": {"norad_id": 34097, "name": "IRIDIUM 33 DEB", "group": "iridium-33-debris", "lat": -85.53901672701647, "lon": -124.52961639991753, "alt_km": 755.4117105611685, "timestamp": "2025-12-22T14:45:57.790209+00:00", "meta": {"OBJECT_NAME": "IRIDIUM 33 DEB", "OBJECT_ID": "1997-051DG", "EPOCH": "2025-12-21T17:25:54.708096", "MEAN_MOTION": 14.34842899, "ECCENTRICITY": 0.00816917, "INCLINATION": 86.1999, "RA_OF_ASC_NODE": 357.4405, "ARG_OF_PERICENTER": 332.7773, "MEAN_ANOMALY": 26.9151, "EPHEMERIS_TYPE": 0, "CLASSIFICATION_TYPE": "U", "NORAD_CAT_ID": 34097, "ELEMENT_SET_NO": 999, "REV_AT_EPOCH": 87248, "BSTAR": 0.0011552896, "MEAN_MOTION_DOT": 3.423e-05, "MEAN_MOTION_DDOT": 0}, "tle": {"line1": "1 34097U 97051DG  25355.72632764  .00003423  00000+0  11553-2 0  9990", "line2": "2 34097  86.1999 357.4405 0081691 332.7773  26.9151 14.34842899872487"}}, "geometry": {"type": "Point", "coordinates": [-124.52961639991753, -85.53901672701647]}}, {"type": "Feature", "properties": {"norad_id": 34145, "name": "IRIDIUM 33 DEB", "group": "iridium-33-debris", "lat": 83.31798751467775, "lon": 2.5638246256024804, "alt_km": 706.5125523518045, "timestamp": "2025-12-22T14:45:57.790220+00:00", "meta": {"OBJECT_NAME": "IRIDIUM 33 DEB", "OBJECT_ID": "1997-051DY", "EPOCH": "2025-12-22T04:23:22.180704", "MEAN_MOTION": 14.42352181, "ECCENTRICITY": 0.00556524, "INCLINATION": 86.2122, "RA_OF_ASC_NODE": 328.3204, "ARG_OF_PERICENTER": 63.8456, "MEAN_ANOMALY": 296.8453, "EPHEMERIS_TYPE": 0, "CLASSIFICATION_TYPE": "U", "NORAD_CAT_ID": 34145, "ELEMENT_SET_NO": 999, "REV_AT_EPOCH": 87774, "BSTAR": 0.0011263527, "MEAN_MOTION_DOT": 3.81e-05, "MEAN_MOTION_DDOT": 0}, "tle": {"line1": "1 34145U 97051DY  25356.18289561  .00003810  00000+0  11264-2 0  9997", "line2": "2 34145  86.2122 328.3204 0055652  63.8456 296.8453 14.42352181877748"}}, "geometry": {"type": "Point", "coordinates": [2.5638246256024804, 83.31798751467775]}}, {"type": "Feature", "properties": {"norad_id": 34146, "name": "IRIDIUM 33 DEB", "group": "iridium-33-debris", "lat": -37.98941824356115, "lon": -17.472327566389662, "alt_km": 748.2919764242088, "timestamp": "2025-12-22T14:45:57.790231+00:00", "meta": {"OBJECT_NAME": "IRIDIUM 33 DEB", "OBJECT_ID": "1997-051DZ", "EPOCH": "2025-12-22T06:57:02.081088", "MEAN_MOTION": 14.4910725, "ECCENTRICITY": 0.00265551, "INCLINATION": 86.2838, "RA_OF_ASC_NODE": 345.581, "ARG_OF_PERICENTER": 188.5022, "MEAN_ANOMALY": 235.5645, "EPHEMERIS_TYPE": 0, "CLASSIFICATION_TYPE": "U", "NORAD_CAT_ID": 34146, "ELEMENT_SET_NO": 999, "REV_AT_EPOCH": 88245, "BSTAR": 0.00084567374, "MEAN_MOTION_DOT": 3.247e-05, "MEAN_MOTION_DDOT": 0}, "tle": {"line1": "1 34146U 97051DZ  25356.28960742  .00003247  00000+0  84567-3 0  9997", "line2": "2 34146  86.2838 345.5810 0026555 188.5022 235.5645 14.49107250882450"}}, "geometry": {"type": "Point", "coordinates": [-17.472327566389662, -37.98941824356115]}}, {"type": "Feature", "properties": {"norad_id": 34159, "name": "IRIDIUM 33 DEB", "group": "iridium-33-debris", "lat": 21.292797001459405, "lon": 45.45605358334195, "alt_km": 774.878520200763, "timestamp": "2025-12-22T14:45:57.790241+00:00", "meta": {"OBJECT_NAME": "IRIDIUM 33 DEB", "OBJECT_ID": "1997-051EN", "EPOCH": "2025-12-22T02:58:50.860992", "MEAN_MOTION": 14.38515401, "ECCENTRICITY": 0.00260752, "INCLINATION": 86.3498, "RA_OF_ASC_NODE": 44.2398, "ARG_OF_PERICENTER": 254.6532, "MEAN_ANOMALY": 105.1785, "EPHEMERIS_TYPE": 0, "CLASSIFICATION_TYPE": "U", "NORAD_CAT_ID": 34159, "ELEMENT_SET_NO": 999, "REV_AT_EPOCH": 88094, "BSTAR": 0.00034381361, "MEAN_MOTION_DOT": 1.073e-05, "MEAN_MOTION_DDOT": 0}, "tle": {"line1": "1 34159U 97051EN  25356.12419978  .00001073  00000+0  34381-3 0  9998", "line2": "2 34159  86.3498  44.2398 0026075 254.6532 105.1785 14.38515401880947"}}, "geometry": {"type": "Point", "coordinates": [45.45605358334195, 21.292797001459405]}}, {"type": "Feature", "properties": {"norad_id": 34350, "name": "IRIDIUM 33 DEB", "group": "iridium-33-debris", "lat": -65.17432342388005, "lon": -9.459436553715094, "alt_km": 764.4094354771851, "timestamp": "2025-12-22T14:45:57.790252+00:00", "meta": {"OBJECT_NAME": "IRIDIUM 33 DEB", "OBJECT_ID": "1997-051ES", "EPOCH": "2025-12-21T13:03:35.322048", "MEAN_MOTION": 14.45405822, "ECCENTRICITY": 0.0023399, "INCLINATION": 86.3272, "RA_OF_ASC_NODE": 358.9864, "ARG_OF_PERICENTER": 108.1972, "MEAN_ANOMALY": 16.6332, "EPHEMERIS_TYPE": 0, "CLASSIFICATION_TYPE": "U", "NORAD_CAT_ID": 34350, "ELEMENT_SET_NO": 999, "REV_AT_EPOCH": 88420, "BSTAR": 0.00025936, "MEAN_MOTION_DOT": 9.35e-06, "MEAN_MOTION_DDOT": 0}, "tle": {"line1": "1 34350U 97051ES  25355.54415882  .00000935  00000+0  25936-3 0  9998", "line2": "2 34350  86.3272 358.9864 0023399 108.1972  16.6332 14.45405822884200"}}, "geometry": {"type": "Point", "coordinates": [-9.459436553715094, -65.17432342388005]}}, {"type": "Feature", "properties": {"norad_id": 34366, "name": "IRIDIUM 33 DEB", "group": "iridium-33-debris", "lat": -31.70010632340247, "lon": -132.73421967119543, "alt_km": 721.9343993808061, "timestamp": "2025-12-22T14:45:57.790262+00:00", "meta": {"OBJECT_NAME": "IRIDIUM 33 DEB", "OBJECT_ID": "1997-051FJ", "EPOCH": "2025-12-22T04:08:15.707328", "MEAN_MOTION": 14.54126521, "ECCENTRICITY": 0.00230083, "INCLINATION": 86.3687, "RA_OF_ASC_NODE": 45.2106, "ARG_OF_PERICENTER": 110.3257, "MEAN_ANOMALY": 304.3234, "EPHEMERIS_TYPE": 0, "CLASSIFICATION_TYPE": "U", "NORAD_CAT_ID": 34366, "ELEMENT_SET_NO": 999, "REV_AT_EPOCH": 88319, "BSTAR": 0.00086402761, "MEAN_MOTION_DOT": 3.684e-05, "MEAN_MOTION_DDOT": 0}, "tle": {"line1": "1 34366U 97051FJ  25356.17240402  .00003684  00000+0  86403-3 0  9999", "line2": "2 34366  86.3687  45.2106 0023008 110.3257 304.3234 14.54126521883191"}}, "geometry": {"type": "Point", "coordinates": [-132.73421967119543, -31.70010632340247]}}]}